{
    "links": {
        "self": "http://www.neowsapp.com/rest/v1/neo/3591892?api_key=iIulBulltgU6a56xZRHN4H3l9WmuAYTsLGpBGhQ2"
    },
    "id": "3591892",
    "neo_reference_id": "3591892",
    "name": "(2011 YB63)",
    "designation": "2011 YB63",
    "nasa_jpl_url": "http://ssd.jpl.nasa.gov/sbdb.cgi?sstr=3591892",
    "absolute_magnitude_h": 29.8,
    "estimated_diameter": {
        "kilometers": {
            "estimated_diameter_min": 0.002914439,
            "estimated_diameter_max": 0.0065168838
        },
        "meters": {
            "estimated_diameter_min": 2.9144390453,
            "estimated_diameter_max": 6.5168838217
        },
        "miles": {
            "estimated_diameter_min": 0.0018109479,
            "estimated_diameter_max": 0.0040494026
        },
        "feet": {
            "estimated_diameter_min": 9.5618081975,
            "estimated_diameter_max": 21.3808531175
        }
    },
    "is_potentially_hazardous_asteroid": false,
    "close_approach_data": [
        {
            "close_approach_date": "2012-01-02",
            "close_approach_date_full": "2012-Jan-02 00:10",
            "epoch_date_close_approach": 1325463000000,
            "relative_velocity": {
                "kilometers_per_second": "9.0506971616",
                "kilometers_per_hour": "32582.5097817767",
                "miles_per_hour": "20245.5044807934"
            },
            "miss_distance": {
                "astronomical": "0.0021122904",
                "lunar": "0.8216809656",
                "kilometers": "315994.144661448",
                "miles": "196349.6566380624"
            },
            "orbiting_body": "Moon"
        },
        {
            "close_approach_date": "2012-01-02",
            "close_approach_date_full": "2012-Jan-02 10:15",
            "epoch_date_close_approach": 1325499300000,
            "relative_velocity": {
                "kilometers_per_second": "8.5298678986",
                "kilometers_per_hour": "30707.524434974",
                "miles_per_hour": "19080.461502387"
            },
            "miss_distance": {
                "astronomical": "0.0015618954",
                "lunar": "0.6075773106",
                "kilometers": "233656.225002798",
                "miles": "145187.2457946924"
            },
            "orbiting_body": "Earth"
        }
    ],
    "orbital_data": {
        "orbit_id": "4",
        "orbit_determination_date": "2017-04-06 08:51:34",
        "first_observation_date": "2011-12-31",
        "last_observation_date": "2012-01-01",
        "data_arc_in_days": 1,
        "observations_used": 8,
        "orbit_uncertainty": "7",
        "minimum_orbit_intersection": ".00146215",
        "jupiter_tisserand_invariant": "3.718",
        "epoch_osculation": "2459000.5",
        "eccentricity": ".5144675272465512",
        "semi_major_axis": "1.950109504436424",
        "inclination": "1.500884382921121",
        "ascending_node_longitude": "277.5429860070931",
        "orbital_period": "994.6881070027798",
        "perihelion_distance": ".9468414898290195",
        "perihelion_argument": "210.3388000433301",
        "aphelion_distance": "2.953377519043828",
        "perihelion_time": "2458933.684640208819",
        "mean_anomaly": "24.18198162367094",
        "mean_motion": ".3619224935590729",
        "equinox": "J2000",
        "orbit_class": {
            "orbit_class_type": "APO",
            "orbit_class_description": "Near-Earth asteroid orbits which cross the Earth’s orbit similar to that of 1862 Apollo",
            "orbit_class_range": "a (semi-major axis) > 1.0 AU; q (perihelion) < 1.017 AU"
        }
    },
    "is_sentry_object": false
}